NORAD_CAT_ID,OBJECT_NAME,OBJECT_TYPE,EPOCH,MEAN_MOTION,ECCENTRICITY,INCLINATION,RA_OF_ASC_NODE,ARG_OF_PERICENTER,MEAN_ANOMALY,BSTAR,MEAN_MOTION_DOT,MEAN_MOTION_DDOT,TLE_LINE0,TLE_LINE1,TLE_LINE2,SEMIMAJOR_AXIS,PERIOD,APOGEE,PERIGEE,DECAYED
52132.0,STARLINK-3718,PAYLOAD,2024-04-12 00:51:20,15.08837555,0.0001835,53.2201,316.5235,91.4996,268.6206,7.5262e-05,9.1e-06,0.0,0 STARLINK-3718,1 52132U 22029AW  24103.03565912  .00000910  00000-0  75262-4 0  9995,2 52132  53.2201 316.5235 0001835  91.4996 268.6206 15.08837555115765,6917.888,95.438,541.022,538.483,0.0
52132.0,STARLINK-3718,PAYLOAD,2024-04-12 21:31:21,15.08828433,0.0001412,53.2196,312.6569,100.5151,259.6001,0.00030075,4.5e-05,0.0,0 STARLINK-3718,1 52132U 22029AW  24103.89677915  .00004500  00000-0  30075-3 0  9997,2 52132  53.2196 312.6569 0001412 100.5151 259.6001 15.08828433115893,6917.916,95.438,540.758,538.804,0.0
52132.0,STARLINK-3718,PAYLOAD,2024-04-13 19:46:45,15.0884462,0.0001204,53.2182,308.4927,91.1302,268.9828,5.2103e-05,5.42e-06,0.0,0 STARLINK-3718,1 52132U 22029AW  24104.82413547  .00000542  00000-0  52103-4 0  9999,2 52132  53.2182 308.4927 0001204  91.1302 268.9828 15.08844620116034,6917.866,95.437,540.564,538.898,0.0
52132.0,STARLINK-3718,PAYLOAD,2024-04-14 19:37:32,15.08842767,0.0001534,53.2181,304.0353,68.0443,292.0712,5.3101e-05,5.57e-06,0.0,0 STARLINK-3718,1 52132U 22029AW  24105.81773777  .00000557  00000-0  53101-4 0  9998,2 52132  53.2181 304.0353 0001534  68.0443 292.0712 15.08842767116189,6917.872,95.437,540.798,538.676,0.0
52132.0,STARLINK-3718,PAYLOAD,2024-04-15 13:06:47,15.08838986,0.0001533,53.219,300.7596,94.5539,265.5629,5.2559e-05,5.49e-06,0.0,0 STARLINK-3718,1 52132U 22029AW  24106.54637836  .00000549  00000-0  52559-4 0  9991,2 52132  53.2190 300.7596 0001533  94.5539 265.5629 15.08838986116292,6917.883,95.438,540.809,538.688,0.0
52132.0,STARLINK-3718,PAYLOAD,2024-04-15 19:28:19,15.08838725,0.0001543,53.2191,299.5707,95.2075,264.9093,4.8662e-05,4.87e-06,0.0,0 STARLINK-3718,1 52132U 22029AW  24106.81133914  .00000487  00000-0  48662-4 0  9990,2 52132  53.2191 299.5707 0001543  95.2075 264.9093 15.08838725116330,6917.884,95.438,540.817,538.682,0.0
52132.0,STARLINK-3718,PAYLOAD,2024-04-15 22:39:06,15.08838357,0.0001533,53.219,298.9764,94.8737,265.2431,4.3912e-05,4.11e-06,0.0,0 STARLINK-3718,1 52132U 22029AW  24106.94381966  .00000411  00000-0  43912-4 0  9996,2 52132  53.2190 298.9764 0001533  94.8737 265.2431 15.08838357116357,6917.885,95.438,540.811,538.69,0.0
52132.0,STARLINK-3718,PAYLOAD,2024-04-16 19:19:06,15.08847473,0.0001562,53.2191,295.1107,95.5189,264.5981,0.00013531,1.867e-05,0.0,0 STARLINK-3718,1 52132U 22029AW  24107.80493234  .00001867  00000-0  13531-3 0  9993,2 52132  53.2191 295.1107 0001562  95.5189 264.5981 15.08847473116484,6917.858,95.437,540.803,538.642,0.0
52132.0,STARLINK-3718,PAYLOAD,2024-04-17 19:09:54,15.0882998,0.0001139,53.2171,290.6509,97.0459,263.0663,-5.2372e-05,-1.121e-05,0.0,0 STARLINK-3718,1 52132U 22029AW  24108.79854539 -.00001121  00000-0 -52372-4 0  9993,2 52132  53.2171 290.6509 0001139  97.0459 263.0663 15.08829980116636,6917.911,95.438,540.564,538.988,0.0
52132.0,STARLINK-3718,PAYLOAD,2024-04-18 17:25:18,15.08838263,0.0001039,53.2161,286.4867,88.4204,271.6908,-2.9913e-05,-7.64e-06,0.0,0 STARLINK-3718,1 52132U 22029AW  24109.72590538 -.00000764  00000-0 -29913-4 0  9990,2 52132  53.2161 286.4867 0001039  88.4204 271.6908 15.08838263116772,6917.886,95.438,540.469,539.032,0.0
52132.0,STARLINK-3718,PAYLOAD,2024-04-19 20:26:51,15.08859697,0.0001115,53.2166,281.4305,91.9537,268.1582,0.00058757,9.081e-05,0.0,0 STARLINK-3718,1 52132U 22029AW  24110.85197985  .00009081  00000-0  58757-3 0  9991,2 52132  53.2166 281.4305 0001115  91.9537 268.1582 15.08859697116944,6917.82,95.436,540.457,538.914,0.0
52132.0,STARLINK-3718,PAYLOAD,2024-04-20 12:20:40,15.08891186,0.0001104,53.2163,278.4579,107.0799,253.0314,0.00092626,0.00014505,0.0,0 STARLINK-3718,1 52132U 22029AW  24111.51435660  .00014505  00000-0  92626-3 0  9990,2 52132  53.2163 278.4579 0001104 107.0799 253.0314 15.08891186117044,6917.724,95.434,540.353,538.825,0.0
52132.0,STARLINK-3718,PAYLOAD,2024-04-20 20:17:37,15.08816769,0.0001159,53.2162,276.9712,92.4435,267.669,-0.0019299,-0.00030851,0.0,0 STARLINK-3718,1 52132U 22029AW  24111.84556932 -.00030851  00000-0 -19299-2 0  9990,2 52132  53.2162 276.9712 0001159  92.4435 267.6690 15.08816769117096,6917.951,95.439,540.618,539.015,0.0
52132.0,STARLINK-3718,PAYLOAD,2024-04-21 10:36:06,15.08810492,0.000116,53.2165,274.2945,81.4471,278.6652,-0.00026645,-4.522e-05,0.0,0 STARLINK-3718,1 52132U 22029AW  24112.44174252 -.00004522  00000-0 -26645-3 0  9998,2 52132  53.2165 274.2945 0001160  81.4471 278.6652 15.08810492117185,6917.971,95.439,540.638,539.033,0.0
52132.0,STARLINK-3718,PAYLOAD,2024-04-21 16:57:39,15.088304,0.000125,53.2161,273.1068,83.1313,276.9821,0.0024616,0.00039096,0.0,0 STARLINK-3718,1 52132U 22029AW  24112.70670831  .00039096  00000-0  24616-2 0  9998,2 52132  53.2161 273.1068 0001250  83.1313 276.9821 15.08830400117224,6917.91,95.438,540.639,538.91,0.0
52132.0,STARLINK-3718,PAYLOAD,2024-04-22 10:26:54,15.08851397,0.0001724,53.2159,269.8399,59.4013,300.7149,0.0014705,0.000232,0.0,0 STARLINK-3718,1 52132U 22029AW  24113.43535292  .00023200  00000-0  14705-2 0  9998,2 52132  53.2159 269.8399 0001724  59.4013 300.7149 15.08851397117338,6917.846,95.437,540.903,538.518,0.0
52132.0,STARLINK-3718,PAYLOAD,2024-04-22 15:13:03,15.08839715,0.0001215,53.217,268.9406,131.6881,228.4215,0.00081242,0.00012665,0.0,0 STARLINK-3718,1 52132U 22029AW  24113.63407085  .00012665  00000-0  81242-3 0  9992,2 52132  53.2170 268.9406 0001215 131.6881 228.4215 15.08839715117364,6917.881,95.438,540.587,538.906,0.0
52132.0,STARLINK-3718,PAYLOAD,2024-04-23 10:17:41,15.08841671,8.37e-05,53.2183,265.3759,63.177,296.9308,0.0005829,9.002e-05,0.0,0 STARLINK-3718,1 52132U 22029AW  24114.42895587  .00009002  00000-0  58290-3 0  9996,2 52132  53.2183 265.3759 0000837  63.1770 296.9308 15.08841671117485,6917.875,95.437,540.319,539.161,0.0
52132.0,STARLINK-3718,PAYLOAD,2024-04-23 13:28:28,15.08838166,0.0001502,53.2181,264.7781,105.7681,254.3477,0.00027401,4.075e-05,0.0,0 STARLINK-3718,1 52132U 22029AW  24114.56143555  .00004075  00000-0  27401-3 0  9997,2 52132  53.2181 264.7781 0001502 105.7681 254.3477 15.08838166117508,6917.886,95.438,540.79,538.712,0.0
52132.0,STARLINK-3718,PAYLOAD,2024-04-23 19:50:00,15.08846223,0.0001415,53.2168,263.5878,101.7932,258.3219,0.00033221,5.004e-05,0.0,0 STARLINK-3718,1 52132U 22029AW  24114.82639265  .00005004  00000-0  33221-3 0  9994,2 52132  53.2168 263.5878 0001415 101.7932 258.3219 15.08846223117540,6917.861,95.437,540.705,538.747,0.0
52132.0,STARLINK-3718,PAYLOAD,2024-04-24 10:08:28,15.0883977,0.0001783,53.2168,260.908,113.9975,246.1204,0.00018096,2.593e-05,0.0,0 STARLINK-3718,1 52132U 22029AW  24115.42255535  .00002593  00000-0  18096-3 0  9998,2 52132  53.2168 260.9080 0001783 113.9975 246.1204 15.08839770117634,6917.881,95.438,540.98,538.513,0.0
52132.0,STARLINK-3718,PAYLOAD,2024-04-24 13:19:15,15.08830373,0.0002135,53.2166,260.3127,125.1729,234.9463,0.00048029,7.362e-05,0.0,0 STARLINK-3718,1 52132U 22029AW  24115.55504019  .00007362  00000-0  48029-3 0  9994,2 52132  53.2166 260.3127 0002135 125.1729 234.9463 15.08830373117656,6917.91,95.438,541.252,538.298,0.0
52132.0,STARLINK-3718,PAYLOAD,2024-04-24 14:54:38,15.08838971,0.0002038,53.2169,260.0155,128.2353,231.8822,0.0001065,1.407e-05,0.0,0 STARLINK-3718,1 52132U 22029AW  24115.62127460  .00001407  00000-0  10650-3 0  9996,2 52132  53.2169 260.0155 0002038 128.2353 231.8822 15.08838971117664,6917.884,95.438,541.158,538.339,0.0
52132.0,STARLINK-3718,PAYLOAD,2024-04-25 13:10:02,15.08838547,0.0001939,53.2172,255.854,122.2044,237.9136,5.6958e-05,6.18e-06,0.0,0 STARLINK-3718,1 52132U 22029AW  24116.54863678  .00000618  00000-0  56958-4 0  9991,2 52132  53.2172 255.8540 0001939 122.2044 237.9136 15.08838547117808,6917.885,95.438,541.091,538.408,0.0
52132.0,STARLINK-3718,PAYLOAD,2024-04-25 14:45:25,15.08839184,0.0001895,53.2176,255.557,120.6948,239.4231,5.6294e-05,6.08e-06,0.0,0 STARLINK-3718,1 52132U 22029AW  24116.61487652  .00000608  00000-0  56294-4 0  9995,2 52132  53.2176 255.5570 0001895 120.6948 239.4231 15.08839184117810,6917.883,95.438,541.059,538.437,0.0
52132.0,STARLINK-3718,PAYLOAD,2024-04-25 16:20:49,15.08817684,0.0001441,53.2173,255.2596,87.8784,272.2373,0.00061009,9.429e-05,0.0,0 STARLINK-3718,1 52132U 22029AW  24116.68113052  .00009429  00000-0  61009-3 0  9991,2 52132  53.2173 255.2596 0001441  87.8784 272.2373 15.08817684117825,6917.949,95.439,540.81,538.817,0.0
52132.0,STARLINK-3718,PAYLOAD,2024-04-26 13:00:49,15.08839323,0.0001281,53.2183,251.3978,82.5588,277.555,0.0001388,1.922e-05,0.0,0 STARLINK-3718,1 52132U 22029AW  24117.54223957  .00001922  00000-0  13880-3 0  9997,2 52132  53.2183 251.3978 0001281  82.5588 277.5550 15.08839323117956,6917.882,95.438,540.634,538.861,0.0
52132.0,STARLINK-3718,PAYLOAD,2024-04-26 14:36:12,15.08841266,0.0001308,53.2175,251.0998,79.4128,280.7012,0.00015432,2.169e-05,0.0,0 STARLINK-3718,1 52132U 22029AW  24117.60847829  .00002169  00000-0  15432-3 0  9993,2 52132  53.2175 251.0998 0001308  79.4128 280.7012 15.08841266117960,6917.877,95.437,540.646,538.837,0.0
52132.0,STARLINK-3718,PAYLOAD,2024-04-26 16:11:35,15.08843813,0.0001223,53.2173,250.806,87.8767,272.2365,0.00018659,2.683e-05,0.0,0 STARLINK-3718,1 52132U 22029AW  24117.67471615  .00002683  00000-0  18659-3 0  9991,2 52132  53.2173 250.8060 0001223  87.8767 272.2365 15.08843813117971,6917.869,95.437,540.58,538.888,0.0
52132.0,STARLINK-3718,PAYLOAD,2024-04-27 01:43:53,15.08854531,0.0001323,53.2176,249.0203,93.9897,266.1246,0.000497,7.634e-05,0.0,0 STARLINK-3718,1 52132U 22029AW  24118.07214996  .00007634  00000-0  49700-3 0  9995,2 52132  53.2176 249.0203 0001323  93.9897 266.1246 15.08854531118033,6917.836,95.437,540.616,538.786,0.0
